GORIZONT 25             
1 21922U 92017A   09171.00270721 -.00000346  00000-0  10000-3 0  2094
2 21922  11.5063  42.3506 0027441 299.4847  60.1983  0.99855136 62972
GORIZONT 26             
1 22041U 92043A   09171.14214109 -.00000001  00000-0  10000-3 0  8464
2 22041  11.3661  43.7207 0029843 102.3666 257.9189  0.99239641 61902
GORIZONT 27             
1 22245U 92082A   09166.97295484 -.00000207  00000-0  10000-3 0  4591
2 22245  11.2671  44.8946 0013629 226.7279 133.1246  1.00222135 64934
GORIZONT 28             
1 22880U 93069A   09170.74599301 -.00000125  00000-0  10000-3 0  1885
2 22880  10.7971  48.1735 0033038 358.1376 303.1063  0.99658888 57284
GORIZONT 29             
1 22907U 93072A   09167.00526304 -.00000278  00000-0  10000-3 0  6724
2 22907  10.7663  48.3153 0012419 207.8664 152.0240  1.00161577 57014
GORIZONT 30             
1 23108U 94030A   09167.45602455 -.00000144  00000-0  10000-3 0  4948
2 23108  10.6126  49.6228 0002113 114.3563 245.6229  1.00288870 55221
GORIZONT 31             
1 23775U 96005A   09171.36892007  .00000029  00000-0  10000-3 0  8430
2 23775   9.5758  55.3516 0020566  67.6739 292.4622  0.99896395 49066
GORIZONT 32             
1 23880U 96034A   09171.09339579 -.00000110  00000-0  10000-3 0  2323
2 23880   9.4388  56.4545 0001674 357.0387 234.7685  1.00269981 47861
GORIZONT 33             
1 26372U 00029A   09169.40338564  .00000090  00000-0  10000-3 0  6304
2 26372   6.6846  65.5315 0002106 349.6231  10.2256  1.00218227 33188
